IRIDIUM 112             
1 41925U 17003J   24098.40025716  .00000335  00000+0  11249-3 0  9990
2 41925  86.3949  62.9514 0002189  93.0854 267.0592 14.34218141378499
IRIDIUM 111             
1 41926U 17003K   24098.38756963  .00000185  00000+0  58853-4 0  9999
2 41926  86.3950  63.0098 0002463  91.8199 268.3279 14.34215680378473
IRIDIUM 113             
1 42803U 17039A   24098.50708839  .00000112  00000+0  32952-4 0  9998
2 42803  86.3922 296.7533 0002218  93.7783 266.3666 14.34214332356426
IRIDIUM 123             
1 42804U 17039B   24098.33924756  .00000122  00000+0  36373-4 0  9990
2 42804  86.3976 328.3347 0002260  89.9791 270.1664 14.34218852355166
IRIDIUM 120             
1 42805U 17039C   24098.29144712  .00000115  00000+0  34012-4 0  9992
2 42805  86.3912 296.7298 0002145  87.9472 272.1970 14.34218688356380
IRIDIUM 118             
1 42807U 17039E   24098.58027295  .00000197  00000+0  63271-4 0  9991
2 42807  86.3974 328.2355 0002044  87.9237 272.2193 14.34218825355191
IRIDIUM 117             
1 42808U 17039F   24098.38998813  .00000318  00000+0  10639-3 0  9997
2 42808  86.3975 328.2800 0002392  88.0806 272.0664 14.34218080355192
